{"type": "FeatureCollection", "features": [ {"type": "Feature", "properties": {"norad_id": 35885, "name": "COSMOS 2251 DEB", "group": "cosmos-2251-debris", "lat": -44.16129558697161, "lon": 129.02110102534175, "alt_km": 786.8295126315024, "timestamp": "2025-12-13T18:50:04.827267+00:00", "meta": {"OBJECT_NAME": "COSMOS 2251 DEB", "OBJECT_ID": "1993-036ATY", "EPOCH": "2025-12-11T14:00:29.145024", "MEAN_MOTION": 14.3751698, "ECCENTRICITY": 0.00231325, "INCLINATION": 74.0283, "RA_OF_ASC_NODE": 296.9234, "ARG_OF_PERICENTER": 17.6536, "MEAN_ANOMALY": 342.5416, "EPHEMERIS_TYPE": 0, "CLASSIFICATION_TYPE": "U", "NORAD_CAT_ID": 35885, "ELEMENT_SET_NO": 999, "REV_AT_EPOCH": 64999, "BSTAR": 0.0005257643, "MEAN_MOTION_DOT": 1.554e-05, "MEAN_MOTION_DDOT": 0}, "tle": {"line1": "1 35885U 93036ATY 25345.58367066  .00001554  00000+0  52576-3 0  9992", "line2": "2 35885  74.0283 296.9234 0023132  17.6536 342.5416 14.37516980649995"}}, "geometry": {"type": "Point", "coordinates": [129.02110102534175, -44.16129558697161]}}, {"type": "Feature", "properties": {"norad_id": 35888, "name": "COSMOS 2251 DEB", "group": "cosmos-2251-debris", "lat": -70.7014158178632, "lon": -130.47507832586214, "alt_km": 728.4548027995343, "timestamp": "2025-12-13T18:50:04.827278+00:00", "meta": {"OBJECT_NAME": "COSMOS 2251 DEB", "OBJECT_ID": "1993-036AUB", "EPOCH": "2025-12-12T07:04:48.029376", "MEAN_MOTION": 14.58316356, "ECCENTRICITY": 0.00482275, "INCLINATION": 74.0337, "RA_OF_ASC_NODE": 357.5138, "ARG_OF_PERICENTER": 129.7983, "MEAN_ANOMALY": 230.7443, "EPHEMERIS_TYPE": 0, "CLASSIFICATION_TYPE": "U", "NORAD_CAT_ID": 35888, "ELEMENT_SET_NO": 999, "REV_AT_EPOCH": 86267, "BSTAR": 0.00060064021, "MEAN_MOTION_DOT": 2.795e-05, "MEAN_MOTION_DDOT": 0}, "tle": {"line1": "1 35888U 93036AUB 25346.29500034  .00002795  00000+0  60064-3 0  9997", "line2": "2 35888  74.0337 357.5138 0048227 129.7983 230.7443 14.58316356862676"}}, "geometry": {"type": "Point", "coordinates": [-130.47507832586214, -70.7014158178632]}}, {"type": "Feature", "properties": {"norad_id": 35890, "name": "COSMOS 2251 DEB", "group": "cosmos-2251-debris", "lat": -58.825936373707584, "lon": -147.73877208053125, "alt_km": 693.443069276309, "timestamp": "2025-12-13T18:50:04.827288+00:00", "meta": {"OBJECT_NAME": "COSMOS 2251 DEB", "OBJECT_ID": "1993-036AUD", "EPOCH": "2025-12-11T11:06:40.401504", "MEAN_MOTION": 14.57450007, "ECCENTRICITY": 0.00537284, "INCLINATION": 73.9357, "RA_OF_ASC_NODE": 245.1419, "ARG_OF_PERICENTER": 9.9774, "MEAN_ANOMALY": 350.2442, "EPHEMERIS_TYPE": 0, "CLASSIFICATION_TYPE": "U", "NORAD_CAT_ID": 35890, "ELEMENT_SET_NO": 999, "REV_AT_EPOCH": 65132, "BSTAR": 0.0035408438, "MEAN_MOTION_DOT": 0.00016406, "MEAN_MOTION_DDOT": 0}, "tle": {"line1": "1 35890U 93036AUD 25345.46296761  .00016406  00000+0  35408-2 0  9994", "line2": "2 35890  73.9357 245.1419 0053728   9.9774 350.2442 14.57450007651328"}}, "geometry": {"type": "Point", "coordinates": [-147.73877208053125, -58.825936373707584]}}, {"type": "Feature", "properties": {"norad_id": 35891, "name": "COSMOS 2251 DEB", "group": "cosmos-2251-debris", "lat": 57.6814339843228, "lon": -115.36128989267702, "alt_km": 466.4898380251925, "timestamp": "2025-12-13T18:50:04.827299+00:00", "meta": {"OBJECT_NAME": "COSMOS 2251 DEB", "OBJECT_ID": "1993-036AUE", "EPOCH": "2025-12-12T23:31:35.861952", "MEAN_MOTION": 15.33352498, "ECCENTRICITY": 0.00436495, "INCLINATION": 73.9891, "RA_OF_ASC_NODE": 93.3587, "ARG_OF_PERICENTER": 223.8568, "MEAN_ANOMALY": 135.9169, "EPHEMERIS_TYPE": 0, "CLASSIFICATION_TYPE": "U", "NORAD_CAT_ID": 35891, "ELEMENT_SET_NO": 999, "REV_AT_EPOCH": 67224, "BSTAR": 0.0018817485, "MEAN_MOTION_DOT": 0.00063011, "MEAN_MOTION_DDOT": 0}, "tle": {"line1": "1 35891U 93036AUE 25346.98027618  .00063011  00000+0  18817-2 0  9995", "line2": "2 35891  73.9891  93.3587 0043649 223.8568 135.9169 15.33352498672248"}}, "geometry": {"type": "Point", "coordinates": [-115.36128989267702, 57.6814339843228]}}, {"type": "Feature", "properties": {"norad_id": 35895, "name": "COSMOS 2251 DEB", "group": "cosmos-2251-debris", "lat": -57.92191246277973, "lon": -41.29339753658627, "alt_km": 1013.545442664863, "timestamp": "2025-12-13T18:50:04.827309+00:00", "meta": {"OBJECT_NAME": "COSMOS 2251 DEB", "OBJECT_ID": "1993-036AUJ", "EPOCH": "2025-12-11T07:10:31.732032", "MEAN_MOTION": 14.01513994, "ECCENTRICITY": 0.01987879, "INCLINATION": 74.0502, "RA_OF_ASC_NODE": 350.1634, "ARG_OF_PERICENTER": 88.7843, "MEAN_ANOMALY": 273.6056, "EPHEMERIS_TYPE": 0, "CLASSIFICATION_TYPE": "U", "NORAD_CAT_ID": 35895, "ELEMENT_SET_NO": 999, "REV_AT_EPOCH": 58992, "BSTAR": 0.0020881347, "MEAN_MOTION_DOT": 3.73e-05, "MEAN_MOTION_DDOT": 0}, "tle": {"line1": "1 35895U 93036AUJ 25345.29897838  .00003730  00000+0  20881-2 0  9997", "line2": "2 35895  74.0502 350.1634 0198787  88.7843 273.6056 14.01513994589929"}}, "geometry": {"type": "Point", "coordinates": [-41.29339753658627, -57.92191246277973]}}, {"type": "Feature", "properties": {"norad_id": 35898, "name": "COSMOS 2251 DEB", "group": "cosmos-2251-debris", "lat": 23.513056949976516, "lon": 108.1683460282994, "alt_km": 569.3956837582982, "timestamp": "2025-12-13T18:50:04.827320+00:00", "meta": {"OBJECT_NAME": "COSMOS 2251 DEB", "OBJECT_ID": "1993-036AUM", "EPOCH": "2025-12-11T03:33:58.696128", "MEAN_MOTION": 14.94658859, "ECCENTRICITY": 0.00792199, "INCLINATION": 73.9916, "RA_OF_ASC_NODE": 300.6702, "ARG_OF_PERICENTER": 84.5945, "MEAN_ANOMALY": 290.8859, "EPHEMERIS_TYPE": 0, "CLASSIFICATION_TYPE": "U", "NORAD_CAT_ID": 35898, "ELEMENT_SET_NO": 999, "REV_AT_EPOCH": 66786, "BSTAR": 0.001087469, "MEAN_MOTION_DOT": 0.00012532, "MEAN_MOTION_DDOT": 0}, "tle": {"line1": "1 35898U 93036AUM 25345.14859602  .00012532  00000+0  10875-2 0  9993", "line2": "2 35898  73.9916 300.6702 0079219  84.5945 290.8859 14.94658859667864"}}, "geometry": {"type": "Point", "coordinates": [108.1683460282994, 23.513056949976516]}}, {"type": "Feature", "properties": {"norad_id": 35901, "name": "COSMOS 2251 DEB", "group": "cosmos-2251-debris", "lat": -24.04888185713712, "lon": -151.9250660920615, "alt_km": 553.4275838174526, "timestamp": "2025-12-13T18:50:04.827330+00:00", "meta": {"OBJECT_NAME": "COSMOS 2251 DEB", "OBJECT_ID": "1993-036AUQ", "EPOCH": "2025-12-07T10:36:21.692736", "MEAN_MOTION": 15.06319673, "ECCENTRICITY": 0.00066034, "INCLINATION": 74.0121, "RA_OF_ASC_NODE": 33.7639, "ARG_OF_PERICENTER": 0.5644, "MEAN_ANOMALY": 13.1472, "EPHEMERIS_TYPE": 0, "CLASSIFICATION_TYPE": "U", "NORAD_CAT_ID": 35901, "ELEMENT_SET_NO": 999, "REV_AT_EPOCH": 86047, "BSTAR": 0.0047775116, "MEAN_MOTION_DOT": 0.0007096, "MEAN_MOTION_DDOT": 0}, "tle": {"line1": "1 35901U 93036AUQ 25341.44191774  .00070960  00000+0  47775-2 0  9994", "line2": "2 35901  74.0121  33.7639 0006603   0.5644  13.1472 15.06319673860474"}}, "geometry": {"type": "Point", "coordinates": [-151.9250660920615, -24.04888185713712]}}, {"type": "Feature", "properties": {"norad_id": 35902, "name": "COSMOS 2251 DEB", "group": "cosmos-2251-debris", "lat": -8.806241897261215, "lon": 55.236595758580066, "alt_km": 873.6458521439645, "timestamp": "2025-12-13T18:50:04.827341+00:00", "meta": {"OBJECT_NAME": "COSMOS 2251 DEB", "OBJECT_ID": "1993-036AUR", "EPOCH": "2025-12-12T01:33:56.017152", "MEAN_MOTION": 14.26898947, "ECCENTRICITY": 0.01020569, "INCLINATION": 73.9828, "RA_OF_ASC_NODE": 235.8058, "ARG_OF_PERICENTER": 350.6999, "MEAN_ANOMALY": 9.2255, "EPHEMERIS_TYPE": 0, "CLASSIFICATION_TYPE": "U", "NORAD_CAT_ID": 35902, "ELEMENT_SET_NO": 999, "REV_AT_EPOCH": 61120, "BSTAR": 0.0016300387, "MEAN_MOTION_DOT": 4.159e-05, "MEAN_MOTION_DDOT": 0}, "tle": {"line1": "1 35902U 93036AUR 25346.06523168  .00004159  00000+0  16300-2 0  9991", "line2": "2 35902  73.9828 235.8058 0102056 350.6999   9.2255 14.26898947611205"}}, "geometry": {"type": "Point", "coordinates": [55.236595758580066, -8.806241897261215]}}, {"type": "Feature", "properties": {"norad_id": 35905, "name": "COSMOS 2251 DEB", "group": "cosmos-2251-debris", "lat": 51.20326331226472, "lon": -130.44307736441138, "alt_km": 601.3208839050849, "timestamp": "2025-12-13T18:50:04.827352+00:00", "meta": {"OBJECT_NAME": "COSMOS 2251 DEB", "OBJECT_ID": "1993-036AUU", "EPOCH": "2025-12-12T21:46:16.127040", "MEAN_MOTION": 14.99027682, "ECCENTRICITY": 0.00908923, "INCLINATION": 74.032, "RA_OF_ASC_NODE": 210.4725, "ARG_OF_PERICENTER": 290.4597, "MEAN_ANOMALY": 68.6848, "EPHEMERIS_TYPE": 0, "CLASSIFICATION_TYPE": "U", "NORAD_CAT_ID": 35905, "ELEMENT_SET_NO": 999, "REV_AT_EPOCH": 88585, "BSTAR": 0.00081105566, "MEAN_MOTION_DOT": 0.00010695, "MEAN_MOTION_DDOT": 0}, "tle": {"line1": "1 35905U 93036AUU 25346.90713110  .00010695  00000+0  81106-3 0  9994", "line2": "2 35905  74.0320 210.4725 0090892 290.4597  68.6848 14.99027682885857"}}, "geometry": {"type": "Point", "coordinates": [-130.44307736441138, 51.20326331226472]}}, {"type": "Feature", "properties": {"norad_id": 35959, "name": "COSMOS 2251 DEB", "group": "cosmos-2251-debris", "lat": -55.453640738935775, "lon": -74.42346377083908, "alt_km": 784.3847756736222, "timestamp": "2025-12-13T18:50:04.827362+00:00", "meta": {"OBJECT_NAME": "COSMOS 2251 DEB", "OBJECT_ID": "1993-036AUZ", "EPOCH": "2025-12-13T07:23:22.047648", "MEAN_MOTION": 14.34136813, "ECCENTRICITY": 0.00215686, "INCLINATION": 74.0325, "RA_OF_ASC_NODE": 311.0234, "ARG_OF_PERICENTER": 31.3363, "MEAN_ANOMALY": 328.9069, "EPHEMERIS_TYPE": 0, "CLASSIFICATION_TYPE": "U", "NORAD_CAT_ID": 35959, "ELEMENT_SET_NO": 999, "REV_AT_EPOCH": 84936, "BSTAR": 0.00020716976, "MEAN_MOTION_DOT": 5.55e-06, "MEAN_MOTION_DDOT": 0}, "tle": {"line1": "1 35959U 93036AUZ 25347.30789407  .00000555  00000+0  20717-3 0  9995", "line2": "2 35959  74.0325 311.0234 0021568  31.3363 328.9069 14.34136813849360"}}, "geometry": {"type": "Point", "coordinates": [-74.42346377083908, -55.453640738935775]}}]}